[{"OBJECT_NAME":"NOAA 18","OBJECT_ID":"2005-018A","EPOCH":"2026-04-11T19:20:46.822272","MEAN_MOTION":14.13717842,"ECCENTRICITY":0.0013817,"INCLINATION":98.8118,"RA_OF_ASC_NODE":182.4427,"ARG_OF_PERICENTER":344.0224,"MEAN_ANOMALY":16.0511,"EPHEMERIS_TYPE":0,"CLASSIFICATION_TYPE":"U","NORAD_CAT_ID":28654,"ELEMENT_SET_NO":999,"REV_AT_EPOCH":7693,"BSTAR":3.6905e-5,"MEAN_MOTION_DOT":2.6e-7,"MEAN_MOTION_DDOT":0},{"OBJECT_NAME":"NOAA 19","OBJECT_ID":"2009-005A","EPOCH":"2026-04-11T19:02:12.556032","MEAN_MOTION":14.13463527,"ECCENTRICITY":0.0013226,"INCLINATION":98.9552,"RA_OF_ASC_NODE":172.6102,"ARG_OF_PERICENTER":214.3774,"MEAN_ANOMALY":145.6543,"EPHEMERIS_TYPE":0,"CLASSIFICATION_TYPE":"U","NORAD_CAT_ID":33591,"ELEMENT_SET_NO":999,"REV_AT_EPOCH":88510,"BSTAR":3.3092e-5,"MEAN_MOTION_DOT":1.7e-7,"MEAN_MOTION_DDOT":0},{"OBJECT_NAME":"SUOMI NPP","OBJECT_ID":"2011-061A","EPOCH":"2026-04-11T19:13:56.271072","MEAN_MOTION":14.19502951,"ECCENTRICITY":0.0002334,"INCLINATION":98.7909,"RA_OF_ASC_NODE":43.1479,"ARG_OF_PERICENTER":129.6116,"MEAN_ANOMALY":230.5266,"EPHEMERIS_TYPE":0,"CLASSIFICATION_TYPE":"U","NORAD_CAT_ID":37849,"ELEMENT_SET_NO":999,"REV_AT_EPOCH":74902,"BSTAR":5.852e-5,"MEAN_MOTION_DOT":7.9e-7,"MEAN_MOTION_DDOT":0},{"OBJECT_NAME":"NOAA 20 (JPSS-1)","OBJECT_ID":"2017-073A","EPOCH":"2026-04-11T19:34:06.907008","MEAN_MOTION":14.19544965,"ECCENTRICITY":0.000214,"INCLINATION":98.7729,"RA_OF_ASC_NODE":41.8813,"ARG_OF_PERICENTER":92.7316,"MEAN_ANOMALY":267.4105,"EPHEMERIS_TYPE":0,"CLASSIFICATION_TYPE":"U","NORAD_CAT_ID":43013,"ELEMENT_SET_NO":999,"REV_AT_EPOCH":43505,"BSTAR":4.4771e-5,"MEAN_MOTION_DOT":5.0e-7,"MEAN_MOTION_DDOT":0}]
