NOAA 18                 
1 28654U 05018A   26101.80609748  .00000026  00000+0  36905-4 0  9995
2 28654  98.8118 182.4427 0013817 344.0224  16.0511 14.13717842 76936
NOAA 19                 
1 33591U 09005A   26101.79320088  .00000017  00000+0  33092-4 0  9990
2 33591  98.9552 172.6102 0013226 214.3774 145.6543 14.13463527885108
SUOMI NPP               
1 37849U 11061A   26101.80134573  .00000079  00000+0  58520-4 0  9990
2 37849  98.7909  43.1479 0002334 129.6116 230.5266 14.19502951749024
NOAA 20 (JPSS-1)        
1 43013U 17073A   26101.81535772  .00000050  00000+0  44771-4 0  9998
2 43013  98.7729  41.8813 0002140  92.7316 267.4105 14.19544965435055
